start=new Date('2023-06-03T00:00:00.000Z').valueOf();
sats=[{"CLASSIFICATION_TYPE":"U","BSTAR":"0.00007672700000","PERIAPSIS":"561.929","TIME_SYSTEM":"UTC","OBJECT_NAME":"STARLINK-4437","REF_FRAME":"TEME","MEAN_MOTION_DOT":"0.00000927","EPHEMERIS_TYPE":"0","MEAN_MOTION":"15.01257238","PERIOD":"95.920","EPOCH":"2023-06-02T21:20:02.674176","LAUNCH_DATE":"2022-08-12","INCLINATION":"97.6580","FILE":"3923570","GP_ID":"233071755","ECCENTRICITY":"0.00015720","TLE_LINE1":"1 53506U 22099AT  23153.88891984  .00000927  00000-0  76727-4 0  9991","ELEMENT_SET_NO":"999","OBJECT_TYPE":"PAYLOAD","MEAN_MOTION_DDOT":"0.0000000000000","MEAN_ANOMALY":"263.9525","MEAN_ELEMENT_THEORY":"SGP4","OBJECT_ID":"2022-099AT","SITE":"AFWTR","COUNTRY_CODE":"US","RA_OF_ASC_NODE":"275.1686","NORAD_CAT_ID":"53506","REV_AT_EPOCH":"4433","SEMIMAJOR_AXIS":"6941.155","CENTER_NAME":"EARTH","DECAY_DATE":null,"RCS_SIZE":"LARGE","ARG_OF_PERICENTER":"96.1878","TLE_LINE2":"2 53506  97.6580 275.1686 0001572  96.1878 263.9525 15.01257238 44335","APOAPSIS":"564.112"},{"TLE_LINE2":"2 53507  97.6565 275.1740 0000691 117.4688 242.6606 15.01256793 44336","APOAPSIS":"563.501","ARG_OF_PERICENTER":"117.4688","RCS_SIZE":"LARGE","REV_AT_EPOCH":"4433","SEMIMAJOR_AXIS":"6941.157","DECAY_DATE":null,"CENTER_NAME":"EARTH","COUNTRY_CODE":"US","RA_OF_ASC_NODE":"275.1740","NORAD_CAT_ID":"53507","MEAN_ELEMENT_THEORY":"SGP4","OBJECT_ID":"2022-099AU","SITE":"AFWTR","MEAN_MOTION_DDOT":"0.0000000000000","MEAN_ANOMALY":"242.6606","ELEMENT_SET_NO":"999","OBJECT_TYPE":"PAYLOAD","FILE":"3923570","GP_ID":"233072005","ECCENTRICITY":"0.00006910","TLE_LINE1":"1 53507U 22099AU  23153.88151175  .00000313  00000-0  28994-4 0  9995","LAUNCH_DATE":"2022-08-12","INCLINATION":"97.6565","PERIOD":"95.920","EPOCH":"2023-06-02T21:09:22.615200","MEAN_MOTION":"15.01256793","TIME_SYSTEM":"UTC","REF_FRAME":"TEME","OBJECT_NAME":"STARLINK-4444","MEAN_MOTION_DOT":"0.00000313","EPHEMERIS_TYPE":"0","PERIAPSIS":"562.542","CLASSIFICATION_TYPE":"U","BSTAR":"0.00002899400000"},{"APOAPSIS":"563.795","TLE_LINE2":"2 53508  97.6575 275.1766 0001119 151.0240 209.1046 15.01257988 44333","ARG_OF_PERICENTER":"151.0240","RCS_SIZE":"LARGE","REV_AT_EPOCH":"4433","CENTER_NAME":"EARTH","DECAY_DATE":null,"SEMIMAJOR_AXIS":"6941.153","COUNTRY_CODE":"US","NORAD_CAT_ID":"53508","RA_OF_ASC_NODE":"275.1766","MEAN_ELEMENT_THEORY":"SGP4","SITE":"AFWTR","OBJECT_ID":"2022-099AV","MEAN_MOTION_DDOT":"0.0000000000000","MEAN_ANOMALY":"209.1046","OBJECT_TYPE":"PAYLOAD","ELEMENT_SET_NO":"999","FILE":"3923570","GP_ID":"233073257","TLE_LINE1":"1 53508U 22099AV  23153.88521377  .00000167  00000-0  17606-4 0  9996","ECCENTRICITY":"0.00011190","LAUNCH_DATE":"2022-08-12","INCLINATION":"97.6575","EPOCH":"2023-06-02T21:14:42.469728","PERIOD":"95.920","MEAN_MOTION":"15.01257988","TIME_SYSTEM":"UTC","EPHEMERIS_TYPE":"0","OBJECT_NAME":"STARLINK-4443","REF_FRAME":"TEME","MEAN_MOTION_DOT":"0.00000167","PERIAPSIS":"562.241","CLASSIFICATION_TYPE":"U","BSTAR":"0.00001760600000"},{"MEAN_ANOMALY":"248.6385","MEAN_MOTION_DDOT":"0.0000000000000","OBJECT_TYPE":"PAYLOAD","ELEMENT_SET_NO":"999","NORAD_CAT_ID":"53509","RA_OF_ASC_NODE":"275.1696","COUNTRY_CODE":"US","SITE":"AFWTR","OBJECT_ID":"2022-099AW","MEAN_ELEMENT_THEORY":"SGP4","RCS_SIZE":"LARGE","DECAY_DATE":null,"CENTER_NAME":"EARTH","SEMIMAJOR_AXIS":"6941.158","REV_AT_EPOCH":"4433","APOAPSIS":"563.625","TLE_LINE2":"2 53509  97.6565 275.1696 0000868 111.4932 248.6385 15.01256435 44333","ARG_OF_PERICENTER":"111.4932","PERIAPSIS":"562.420","BSTAR":"0.00004343600000","CLASSIFICATION_TYPE":"U","MEAN_MOTION":"15.01256435","EPHEMERIS_TYPE":"0","REF_FRAME":"TEME","MEAN_MOTION_DOT":"0.00000499","OBJECT_NAME":"STARLINK-4402","TIME_SYSTEM":"UTC","INCLINATION":"97.6565","LAUNCH_DATE":"2022-08-12","EPOCH":"2023-06-02T21:04:23.888928","PERIOD":"95.920","TLE_LINE1":"1 53509U 22099AW  23153.87805427  .00000499  00000-0  43436-4 0  9995","ECCENTRICITY":"0.00008680","GP_ID":"233073505","FILE":"3923570"},{"APOAPSIS":"564.120","TLE_LINE2":"2 53510  97.6560 275.1715 0001593 107.1711 252.9688 15.01259231 44336","ARG_OF_PERICENTER":"107.1711","RCS_SIZE":"LARGE","REV_AT_EPOCH":"4433","DECAY_DATE":null,"CENTER_NAME":"EARTH","SEMIMAJOR_AXIS":"6941.149","COUNTRY_CODE":"US","NORAD_CAT_ID":"53510","RA_OF_ASC_NODE":"275.1715","MEAN_ELEMENT_THEORY":"SGP4","SITE":"AFWTR","OBJECT_ID":"2022-099AX","MEAN_MOTION_DDOT":"0.0000000000000","MEAN_ANOMALY":"252.9688","OBJECT_TYPE":"PAYLOAD","ELEMENT_SET_NO":"999","GP_ID":"233072256","FILE":"3923570","TLE_LINE1":"1 53510U 22099AX  23153.87966123  .00001041  00000-0  85620-4 0  9993","ECCENTRICITY":"0.00015930","LAUNCH_DATE":"2022-08-12","INCLINATION":"97.6560","EPOCH":"2023-06-02T21:06:42.730272","PERIOD":"95.919","MEAN_MOTION":"15.01259231","TIME_SYSTEM":"UTC","EPHEMERIS_TYPE":"0","REF_FRAME":"TEME","MEAN_MOTION_DOT":"0.00001041","OBJECT_NAME":"STARLINK-4441","PERIAPSIS":"561.908","CLASSIFICATION_TYPE":"U","BSTAR":"0.00008562000000"},{"MEAN_MOTION":"15.08836811","TIME_SYSTEM":"UTC","EPHEMERIS_TYPE":"0","OBJECT_NAME":"STARLINK-4511","MEAN_MOTION_DOT":"0.00000493","REF_FRAME":"TEME","PERIAPSIS":"539.200","CLASSIFICATION_TYPE":"U","BSTAR":"0.00004908100000","GP_ID":"233073006","FILE":"3923570","TLE_LINE1":"1 53527U 22101A   23153.68741653  .00000493  00000-0  49081-4 0  9994","ECCENTRICITY":"0.00008030","LAUNCH_DATE":"2022-08-19","INCLINATION":"53.2160","EPOCH":"2023-06-02T16:29:52.788192","PERIOD":"95.438","COUNTRY_CODE":"US","NORAD_CAT_ID":"53527","RA_OF_ASC_NODE":"292.6901","MEAN_ELEMENT_THEORY":"SGP4","SITE":"AFETR","OBJECT_ID":"2022-101A","MEAN_MOTION_DDOT":"0.0000000000000","MEAN_ANOMALY":"268.9948","OBJECT_TYPE":"PAYLOAD","ELEMENT_SET_NO":"999","APOAPSIS":"540.311","TLE_LINE2":"2 53527  53.2160 292.6901 0000803  91.1136 268.9948 15.08836811 43534","ARG_OF_PERICENTER":"91.1136","RCS_SIZE":"LARGE","REV_AT_EPOCH":"4353","DECAY_DATE":null,"CENTER_NAME":"EARTH","SEMIMAJOR_AXIS":"6917.890"},{"REV_AT_EPOCH":"4354","DECAY_DATE":null,"CENTER_NAME":"EARTH","SEMIMAJOR_AXIS":"6917.890","RCS_SIZE":"LARGE","ARG_OF_PERICENTER":"89.2485","APOAPSIS":"540.562","TLE_LINE2":"2 53528  53.2172 292.3736 0001166  89.2485 270.8641 15.08836735 43547","OBJECT_TYPE":"PAYLOAD","ELEMENT_SET_NO":"999","MEAN_MOTION_DDOT":"0.0000000000000","MEAN_ANOMALY":"270.8641","MEAN_ELEMENT_THEORY":"SGP4","SITE":"AFETR","OBJECT_ID":"2022-101B","COUNTRY_CODE":"US","NORAD_CAT_ID":"53528","RA_OF_ASC_NODE":"292.3736","EPOCH":"2023-06-02T18:10:33.960000","PERIOD":"95.438","LAUNCH_DATE":"2022-08-19","INCLINATION":"53.2172","GP_ID":"233071757","FILE":"3923570","TLE_LINE1":"1 53528U 22101B   23153.75733750 -.00000010  00000-0  17448-4 0  9990","ECCENTRICITY":"0.00011660","CLASSIFICATION_TYPE":"U","BSTAR":"0.00001744800000","PERIAPSIS":"538.949","TIME_SYSTEM":"UTC","EPHEMERIS_TYPE":"0","MEAN_MOTION_DOT":"-0.00000010","OBJECT_NAME":"STARLINK-4503","REF_FRAME":"TEME","MEAN_MOTION":"15.08836735"},{"GP_ID":"233072007","FILE":"3923570","TLE_LINE1":"1 53529U 22101C   23153.68373505 -.00000198  00000-0  56603-5 0  9995","ECCENTRICITY":"0.00008740","EPOCH":"2023-06-02T16:24:34.708320","PERIOD":"95.438","LAUNCH_DATE":"2022-08-19","INCLINATION":"53.2167","TIME_SYSTEM":"UTC","EPHEMERIS_TYPE":"0","REF_FRAME":"TEME","MEAN_MOTION_DOT":"-0.00000198","OBJECT_NAME":"STARLINK-4478","MEAN_MOTION":"15.08840044","CLASSIFICATION_TYPE":"U","BSTAR":"0.00000566030000","PERIAPSIS":"539.141","ARG_OF_PERICENTER":"88.6271","APOAPSIS":"540.350","TLE_LINE2":"2 53529  53.2167 292.7083 0000874  88.6271 271.4821 15.08840044 43536","REV_AT_EPOCH":"4353","DECAY_DATE":null,"CENTER_NAME":"EARTH","SEMIMAJOR_AXIS":"6917.880","RCS_SIZE":"LARGE","MEAN_ELEMENT_THEORY":"SGP4","SITE":"AFETR","OBJECT_ID":"2022-101C","COUNTRY_CODE":"US","NORAD_CAT_ID":"53529","RA_OF_ASC_NODE":"292.7083","OBJECT_TYPE":"PAYLOAD","ELEMENT_SET_NO":"999","MEAN_MOTION_DDOT":"0.0000000000000","MEAN_ANOMALY":"271.4821"},{"REF_FRAME":"TEME","MEAN_MOTION_DOT":"0.00001018","OBJECT_NAME":"STARLINK-4482","EPHEMERIS_TYPE":"0","TIME_SYSTEM":"UTC","MEAN_MOTION":"15.08838718","BSTAR":"0.00008206300000","CLASSIFICATION_TYPE":"U","PERIAPSIS":"539.036","ECCENTRICITY":"0.00010310","TLE_LINE1":"1 53530U 22101D   23153.67733005  .00001018  00000-0  82063-4 0  9990","GP_ID":"233073259","FILE":"3923570","PERIOD":"95.438","EPOCH":"2023-06-02T16:15:21.316320","INCLINATION":"53.2161","LAUNCH_DATE":"2022-08-19","OBJECT_ID":"2022-101D","SITE":"AFETR","MEAN_ELEMENT_THEORY":"SGP4","RA_OF_ASC_NODE":"292.7347","NORAD_CAT_ID":"53530","COUNTRY_CODE":"US","ELEMENT_SET_NO":"999","OBJECT_TYPE":"PAYLOAD","MEAN_ANOMALY":"270.6440","MEAN_MOTION_DDOT":"0.0000000000000","ARG_OF_PERICENTER":"89.4670","TLE_LINE2":"2 53530  53.2161 292.7347 0001031  89.4670 270.6440 15.08838718 43536","APOAPSIS":"540.463","SEMIMAJOR_AXIS":"6917.884","DECAY_DATE":null,"CENTER_NAME":"EARTH","REV_AT_EPOCH":"4353","RCS_SIZE":"LARGE"},{"BSTAR":"-0.00002798900000","CLASSIFICATION_TYPE":"U","PERIAPSIS":"539.008","EPHEMERIS_TYPE":"0","REF_FRAME":"TEME","MEAN_MOTION_DOT":"-0.00000733","OBJECT_NAME":"STARLINK-4487","TIME_SYSTEM":"UTC","MEAN_MOTION":"15.08839011","EPOCH":"2023-06-02T16:19:16.485024","PERIOD":"95.438","INCLINATION":"53.2165","LAUNCH_DATE":"2022-08-19","TLE_LINE1":"1 53531U 22101E   23153.68005191 -.00000733  00000-0 -27989-4 0  9991","ECCENTRICITY":"0.00010700","GP_ID":"233073507","FILE":"3923570","OBJECT_TYPE":"PAYLOAD","ELEMENT_SET_NO":"999","MEAN_ANOMALY":"262.4426","MEAN_MOTION_DDOT":"0.0000000000000","SITE":"AFETR","OBJECT_ID":"2022-101E","MEAN_ELEMENT_THEORY":"SGP4","NORAD_CAT_ID":"53531","RA_OF_ASC_NODE":"292.7244","COUNTRY_CODE":"US","CENTER_NAME":"EARTH","DECAY_DATE":null,"SEMIMAJOR_AXIS":"6917.883","REV_AT_EPOCH":"4353","RCS_SIZE":"LARGE","ARG_OF_PERICENTER":"97.6688","APOAPSIS":"540.489","TLE_LINE2":"2 53531  53.2165 292.7244 0001070  97.6688 262.4426 15.08839011 43530"}];
